FLOCK 4G-13             
1 62621U 25009N   26068.70638971  .00053076  00000+0  16695-2 0  9995
2 62621  97.4019 151.0918 0003801 292.7207  67.3633 15.32770015 63700
STARLINK-34222          
1 64191U 25113X   26068.44120513  .00027535  00000+0  93845-3 0  9998
2 64191  53.1598  92.5258 0001336  80.5572 279.5580 15.30196643 44984
